CCSDS_OMM_VERS = 2.0
CREATION_DATE  = 
ORIGINATOR     = 

OBJECT_NAME    = STARLINK-36465
OBJECT_ID      = 2026-005V
CENTER_NAME    = EARTH
REF_FRAME      = TEME
TIME_SYSTEM    = UTC
MEAN_ELEMENT_THEORY = SGP/SGP4

EPOCH          = 2026-02-10T09:02:09.038400
MEAN_MOTION    = 15.40695340
ECCENTRICITY   = .0001129
INCLINATION    = 43.0001
RA_OF_ASC_NODE = 34.4558
ARG_OF_PERICENTER = 238.5934
MEAN_ANOMALY   = 121.4812

EPHEMERIS_TYPE = 0
CLASSIFICATION_TYPE = U
NORAD_CAT_ID   = 67423
ELEMENT_SET_NO = 999
REV_AT_EPOCH   = 449
BSTAR          = .1747E-2
MEAN_MOTION_DOT = .73366E-3
MEAN_MOTION_DDOT = 0

CCSDS_OMM_VERS = 2.0
CREATION_DATE  = 
ORIGINATOR     = 

OBJECT_NAME    = STARLINK-36362
OBJECT_ID      = 2026-005W
CENTER_NAME    = EARTH
REF_FRAME      = TEME
TIME_SYSTEM    = UTC
MEAN_ELEMENT_THEORY = SGP/SGP4

EPOCH          = 2026-02-10T08:55:40.982304
MEAN_MOTION    = 15.40732902
ECCENTRICITY   = .000087
INCLINATION    = 43.0006
RA_OF_ASC_NODE = 34.4204
ARG_OF_PERICENTER = 264.8687
MEAN_ANOMALY   = 95.2070

EPHEMERIS_TYPE = 0
CLASSIFICATION_TYPE = U
NORAD_CAT_ID   = 67424
ELEMENT_SET_NO = 999
REV_AT_EPOCH   = 449
BSTAR          = .14983E-2
MEAN_MOTION_DOT = .62871E-3
MEAN_MOTION_DDOT = 0

CCSDS_OMM_VERS = 2.0
CREATION_DATE  = 
ORIGINATOR     = 

OBJECT_NAME    = STARLINK-36447
OBJECT_ID      = 2026-005X
CENTER_NAME    = EARTH
REF_FRAME      = TEME
TIME_SYSTEM    = UTC
MEAN_ELEMENT_THEORY = SGP/SGP4

EPOCH          = 2026-02-10T08:49:14.884032
MEAN_MOTION    = 15.40701596
ECCENTRICITY   = .0001276
INCLINATION    = 43.0014
RA_OF_ASC_NODE = 34.3854
ARG_OF_PERICENTER = 267.7091
MEAN_ANOMALY   = 92.3619

EPHEMERIS_TYPE = 0
CLASSIFICATION_TYPE = U
NORAD_CAT_ID   = 67425
ELEMENT_SET_NO = 999
REV_AT_EPOCH   = 449
BSTAR          = .11362E-2
MEAN_MOTION_DOT = .47455E-3
MEAN_MOTION_DDOT = 0

CCSDS_OMM_VERS = 2.0
CREATION_DATE  = 
ORIGINATOR     = 

OBJECT_NAME    = STARLINK-36146
OBJECT_ID      = 2026-005Y
CENTER_NAME    = EARTH
REF_FRAME      = TEME
TIME_SYSTEM    = UTC
MEAN_ELEMENT_THEORY = SGP/SGP4

EPOCH          = 2026-02-10T12:00:01.999296
MEAN_MOTION    = 15.40661032
ECCENTRICITY   = .0001191
INCLINATION    = 43.0008
RA_OF_ASC_NODE = 33.4419
ARG_OF_PERICENTER = 276.1358
MEAN_ANOMALY   = 174.3217

EPHEMERIS_TYPE = 0
CLASSIFICATION_TYPE = U
NORAD_CAT_ID   = 67426
ELEMENT_SET_NO = 999
REV_AT_EPOCH   = 577
BSTAR          = .16803E-2
MEAN_MOTION_DOT = .70444E-3
MEAN_MOTION_DDOT = 0

CCSDS_OMM_VERS = 2.0
CREATION_DATE  = 
ORIGINATOR     = 

OBJECT_NAME    = STARLINK-36459
OBJECT_ID      = 2026-005Z
CENTER_NAME    = EARTH
REF_FRAME      = TEME
TIME_SYSTEM    = UTC
MEAN_ELEMENT_THEORY = SGP/SGP4

EPOCH          = 2026-02-09T07:29:51.117216
MEAN_MOTION    = 15.42058683
ECCENTRICITY   = .0004637
INCLINATION    = 43.0004
RA_OF_ASC_NODE = 40.2226
ARG_OF_PERICENTER = 211.9517
MEAN_ANOMALY   = 148.1059

EPHEMERIS_TYPE = 0
CLASSIFICATION_TYPE = U
NORAD_CAT_ID   = 67427
ELEMENT_SET_NO = 999
REV_AT_EPOCH   = 432
BSTAR          = -.73002E-2
MEAN_MOTION_DOT = -.307128E-2
MEAN_MOTION_DDOT = 0

CCSDS_OMM_VERS = 2.0
CREATION_DATE  = 
ORIGINATOR     = 

OBJECT_NAME    = STARLINK-36464
OBJECT_ID      = 2026-005AA
CENTER_NAME    = EARTH
REF_FRAME      = TEME
TIME_SYSTEM    = UTC
MEAN_ELEMENT_THEORY = SGP/SGP4

EPOCH          = 2026-02-10T08:04:18.362496
MEAN_MOTION    = 15.50719000
ECCENTRICITY   = .0008822
INCLINATION    = 43.0014
RA_OF_ASC_NODE = 34.1440
ARG_OF_PERICENTER = 319.1689
MEAN_ANOMALY   = 40.8509

EPHEMERIS_TYPE = 0
CLASSIFICATION_TYPE = U
NORAD_CAT_ID   = 67428
ELEMENT_SET_NO = 999
REV_AT_EPOCH   = 448
BSTAR          = .12624E-2
MEAN_MOTION_DOT = .74908E-3
MEAN_MOTION_DDOT = 0

CCSDS_OMM_VERS = 2.0
CREATION_DATE  = 
ORIGINATOR     = 

OBJECT_NAME    = STARLINK-36513
OBJECT_ID      = 2026-005AB
CENTER_NAME    = EARTH
REF_FRAME      = TEME
TIME_SYSTEM    = UTC
MEAN_ELEMENT_THEORY = SGP/SGP4

EPOCH          = 2026-02-10T00:20:08.505312
MEAN_MOTION    = 15.50591583
ECCENTRICITY   = .0002418
INCLINATION    = 42.9991
RA_OF_ASC_NODE = 36.0239
ARG_OF_PERICENTER = 215.8183
MEAN_ANOMALY   = 144.2516

EPHEMERIS_TYPE = 0
CLASSIFICATION_TYPE = U
NORAD_CAT_ID   = 67429
ELEMENT_SET_NO = 999
REV_AT_EPOCH   = 443
BSTAR          = .19005492E-2
MEAN_MOTION_DOT = .11283E-2
MEAN_MOTION_DDOT = 0

CCSDS_OMM_VERS = 2.0
CREATION_DATE  = 
ORIGINATOR     = 

OBJECT_NAME    = STARLINK-36515
OBJECT_ID      = 2026-005AC
CENTER_NAME    = EARTH
REF_FRAME      = TEME
TIME_SYSTEM    = UTC
MEAN_ELEMENT_THEORY = SGP/SGP4

EPOCH          = 2026-02-10T12:00:01.999296
MEAN_MOTION    = 15.40660850
ECCENTRICITY   = .0001223
INCLINATION    = 43.0003
RA_OF_ASC_NODE = 33.3201
ARG_OF_PERICENTER = 277.1154
MEAN_ANOMALY   = 223.0994

EPHEMERIS_TYPE = 0
CLASSIFICATION_TYPE = U
NORAD_CAT_ID   = 67430
ELEMENT_SET_NO = 999
REV_AT_EPOCH   = 574
BSTAR          = .16655E-2
MEAN_MOTION_DOT = .69816E-3
MEAN_MOTION_DDOT = 0

CCSDS_OMM_VERS = 2.0
CREATION_DATE  = 
ORIGINATOR     = 

OBJECT_NAME    = STARLINK-36443
OBJECT_ID      = 2026-005AD
CENTER_NAME    = EARTH
REF_FRAME      = TEME
TIME_SYSTEM    = UTC
MEAN_ELEMENT_THEORY = SGP/SGP4

EPOCH          = 2026-02-10T08:03:24.451488
MEAN_MOTION    = 15.50634246
ECCENTRICITY   = .0004451
INCLINATION    = 43.0038
RA_OF_ASC_NODE = 34.1417
ARG_OF_PERICENTER = 295.7093
MEAN_ANOMALY   = 64.3307

EPHEMERIS_TYPE = 0
CLASSIFICATION_TYPE = U
NORAD_CAT_ID   = 67431
ELEMENT_SET_NO = 999
REV_AT_EPOCH   = 449
BSTAR          = .12063E-2
MEAN_MOTION_DOT = .71236E-3
MEAN_MOTION_DDOT = 0

CCSDS_OMM_VERS = 2.0
CREATION_DATE  = 
ORIGINATOR     = 

OBJECT_NAME    = STARLINK-36460
OBJECT_ID      = 2026-005AE
CENTER_NAME    = EARTH
REF_FRAME      = TEME
TIME_SYSTEM    = UTC
MEAN_ELEMENT_THEORY = SGP/SGP4

EPOCH          = 2026-02-10T08:02:55.364928
MEAN_MOTION    = 15.50592692
ECCENTRICITY   = .000142
INCLINATION    = 43.0002
RA_OF_ASC_NODE = 34.1352
ARG_OF_PERICENTER = 270.1077
MEAN_ANOMALY   = 89.9620

EPHEMERIS_TYPE = 0
CLASSIFICATION_TYPE = U
NORAD_CAT_ID   = 67432
ELEMENT_SET_NO = 999
REV_AT_EPOCH   = 448
BSTAR          = .12778E-2
MEAN_MOTION_DOT = .75383E-3
MEAN_MOTION_DDOT = 0

CCSDS_OMM_VERS = 2.0
CREATION_DATE  = 
ORIGINATOR     = 

OBJECT_NAME    = YAOGAN-50 01
OBJECT_ID      = 2026-006A
CENTER_NAME    = EARTH
REF_FRAME      = TEME
TIME_SYSTEM    = UTC
MEAN_ELEMENT_THEORY = SGP/SGP4

EPOCH          = 2026-02-10T11:29:52.240704
MEAN_MOTION    = 13.83242679
ECCENTRICITY   = .0000754
INCLINATION    = 142.0324
RA_OF_ASC_NODE = 323.4507
ARG_OF_PERICENTER = 261.5542
MEAN_ANOMALY   = 98.5092

EPHEMERIS_TYPE = 0
CLASSIFICATION_TYPE = U
NORAD_CAT_ID   = 67433
ELEMENT_SET_NO = 999
REV_AT_EPOCH   = 388
BSTAR          = .14737E-3
MEAN_MOTION_DOT = .351E-5
MEAN_MOTION_DDOT = 0

CCSDS_OMM_VERS = 2.0
CREATION_DATE  = 
ORIGINATOR     = 

OBJECT_NAME    = CZ-6A R/B
OBJECT_ID      = 2026-006B
CENTER_NAME    = EARTH
REF_FRAME      = TEME
TIME_SYSTEM    = UTC
MEAN_ELEMENT_THEORY = SGP/SGP4

EPOCH          = 2026-02-10T08:59:00.754656
MEAN_MOTION    = 14.62320010
ECCENTRICITY   = .0203551
INCLINATION    = 142.0439
RA_OF_ASC_NODE = 340.4475
ARG_OF_PERICENTER = 285.4325
MEAN_ANOMALY   = 72.4030

EPHEMERIS_TYPE = 0
CLASSIFICATION_TYPE = U
NORAD_CAT_ID   = 67434
ELEMENT_SET_NO = 999
REV_AT_EPOCH   = 407
BSTAR          = .23785E-3
MEAN_MOTION_DOT = .1971E-4
MEAN_MOTION_DDOT = 0

