STARLINK-36465          
1 67423U 26005V   26041.37649350  .00073366  00000+0  17470-2 0  9990
2 67423  43.0001  34.4558 0001129 238.5934 121.4812 15.40695340  4491
STARLINK-36362          
1 67424U 26005W   26041.37200211  .00062871  00000+0  14983-2 0  9995
2 67424  43.0006  34.4204 0000870 264.8687  95.2070 15.40732902  4494
STARLINK-36447          
1 67425U 26005X   26041.36753338  .00047455  00000+0  11362-2 0  9997
2 67425  43.0014  34.3854 0001276 267.7091  92.3619 15.40701596  4498
STARLINK-36146          
1 67426U 26005Y   26041.50002314  .00070444  00000+0  16803-2 0  9994
2 67426  43.0008  33.4419 0001191 276.1358 174.3217 15.40661032  5772
STARLINK-36459          
1 67427U 26005Z   26040.31239719 -.00307128  00000+0 -73002-2 0  9992
2 67427  43.0004  40.2226 0004637 211.9517 148.1059 15.42058683  4320
STARLINK-36464          
1 67428U 26005AA  26041.33632364  .00074908  00000+0  12624-2 0  9997
2 67428  43.0014  34.1440 0008822 319.1689  40.8509 15.50719000  4484
STARLINK-36513          
1 67429U 26005AB  26041.01398733  .00112830  00000+0  19005-2 0  9999
2 67429  42.9991  36.0239 0002418 215.8183 144.2516 15.50591583  4436
STARLINK-36515          
1 67430U 26005AC  26041.50002314  .00069816  00000+0  16655-2 0  9995
2 67430  43.0003  33.3201 0001223 277.1154 223.0994 15.40660850  5749
STARLINK-36443          
1 67431U 26005AD  26041.33569967  .00071236  00000+0  12063-2 0  9997
2 67431  43.0038  34.1417 0004451 295.7093  64.3307 15.50634246  4496
STARLINK-36460          
1 67432U 26005AE  26041.33536302  .00075383  00000+0  12778-2 0  9995
2 67432  43.0002  34.1352 0001420 270.1077  89.9620 15.50592692  4486
YAOGAN-50 01            
1 67433U 26006A   26041.47907686  .00000351  00000+0  14737-3 0  9990
2 67433 142.0324 323.4507 0000754 261.5542  98.5092 13.83242679  3883
CZ-6A R/B               
1 67434U 26006B   26041.37431429  .00001971  00000+0  23785-3 0  9999
2 67434 142.0439 340.4475 0203551 285.4325  72.4030 14.62320010  4077
